[{"OBJECT_NAME":"YAOGAN-43 01F","OBJECT_ID":"2024-148F","EPOCH":"2026-03-10T00:23:08.877408","MEAN_MOTION":15.29824616,"ECCENTRICITY":0.00057048,"INCLINATION":34.9925,"RA_OF_ASC_NODE":59.8891,"ARG_OF_PERICENTER":18.4862,"MEAN_ANOMALY":341.6062,"EPHEMERIS_TYPE":0,"CLASSIFICATION_TYPE":"U","NORAD_CAT_ID":60463,"ELEMENT_SET_NO":999,"REV_AT_EPOCH":8707,"BSTAR":0.00058388219,"MEAN_MOTION_DOT":0.00017308,"MEAN_MOTION_DDOT":0},{"OBJECT_NAME":"STARLINK-33579","OBJECT_ID":"2025-015G","EPOCH":"2026-03-09T22:26:05.816256","MEAN_MOTION":15.30224913,"ECCENTRICITY":0.0001458,"INCLINATION":53.1584,"RA_OF_ASC_NODE":320.968,"ARG_OF_PERICENTER":139.9087,"MEAN_ANOMALY":220.2021,"EPHEMERIS_TYPE":0,"CLASSIFICATION_TYPE":"U","NORAD_CAT_ID":62764,"ELEMENT_SET_NO":999,"REV_AT_EPOCH":6452,"BSTAR":0.0011321497,"MEAN_MOTION_DOT":0.00033348,"MEAN_MOTION_DDOT":0}]
